CP3
1 31129U 07012N   09225.08749649  .00000063  00000-0  24858-4 0  1252
2 31129 097.9853 275.4290 0103452 108.6480 252.6006 14.52154529123140
CO-65
1 32785U 08021C   09225.19658146 -.00000010  00000-0  55271-5 0  4435
2 32785 097.9398 288.6812 0014419 202.5580 157.4999 14.81506767 69888
KKS-1
1 33493U 09002B   09225.80969824  .00000201  00000-0  33075-4 0  6562
2 33493 098.0609 338.2843 0021269 057.6471 302.6797 14.80712561 29995
SOHLA-1
1 33496U 09002E   09225.78998660  .00000018  00000-0  11342-4 0  6202
2 33496 098.0415 334.2108 0007847 097.2063 263.0036 14.69442738 29737
NOAA-10
1 16969U 86073A   09225.49710377 -.00000023  00000-0  87423-5 0  7220
2 16969 098.6893 251.8274 0012923 033.1016 327.0981 14.27392125191687
NOAA-11
1 19531U 88089A   09225.27514875 -.00000047  00000-0 -17805-5 0  7390
2 19531 098.7828 314.3468 0011007 309.0685 050.9487 14.14900813 77594
NOAA-12
1 21263U 91032A   09225.51972061  .00000021  00000-0  27855-4 0  2254
2 21263 098.7734 233.6086 0012493 345.3068 014.7747 14.25588883948564
MET-3/5
1 21655U 91056A   09224.97414743  .00000051  00000-0  10000-3 0 07163
2 21655 082.5569 166.3852 0014803 042.4504 317.7759 13.17019873865101
MET-2/21
1 22782U 93055A   09225.81344168  .00000050  00000-0  31402-4 0  5362
2 22782 082.5494 136.3075 0022004 181.2479 178.8615 13.83639584805571
OKEAN-4
1 23317U 94066A   09225.12517064  .00000029  00000-0  64049-6 0  9883
2 23317 082.5396 281.3558 0022228 172.4681 187.6889 14.82713285800802
NOAA-14
1 23455U 94089A   09225.42564196 -.00000031  00000-0  71183-5 0  7217
2 23455 098.9051 302.8981 0009755 034.0765 326.1053 14.13767238754014
NOAA-15
1 25338U 98030A   09225.49821483  .00000189  00000-0  99790-4 0   401
2 25338 098.5879 213.4599 0009580 249.7465 110.2683 14.24779708584930
RESURS
1 25394U 98043A   09224.92678331 -.00000012  00000-0  12363-4 0 02843
2 25394 098.3374 254.3796 0002465 052.7852 307.3552 14.24187616576475
FENGYUN1
1 25730U 99025A   09225.91706768  .00000416  00000-0  26940-3 0  8268
2 25730 098.7573 194.3516 0023486 053.7884 306.5454 14.07950827528448
OKEAN-0
1 25860U 99039A   09225.41388555  .00000002  00000-0  76211-5 0  7563
2 25860 097.7911 204.3343 0001523 044.5628 315.5703 14.73583424541573
NOAA-16
1 26536U 00055A   09225.52646149 -.00000318  00000-0 -14688-3 0  5188
2 26536 099.1786 230.5852 0011412 118.3490 241.8829 14.12527055458399
NOAA-17
1 27453U 02032A   09225.47397543  .00000264  00000-0  13308-3 0  5196
2 27453 098.4788 282.5588 0010894 320.3070 039.7322 14.24084248370904
