Satellite: CP3
Catalog number: 31129
Epoch time:      09225.08749649
Element set:     125
Inclination:      097.9853 deg
RA of node:       275.4290 deg
Eccentricity:    0.0103452
Arg of perigee:   108.6480 deg
Mean anomaly:     252.6006 deg
Mean motion:   14.52154529 rev/day
Decay rate:        6.3e-07 rev/day^2
Epoch rev:           12314
Checksum:              293

Satellite: CO-65
Catalog number: 32785
Epoch time:      09225.19658146
Element set:     443
Inclination:      097.9398 deg
RA of node:       288.6812 deg
Eccentricity:    0.0014419
Arg of perigee:   202.5580 deg
Mean anomaly:     157.4999 deg
Mean motion:   14.81506767 rev/day
Decay rate:       -1.0e-07 rev/day^2
Epoch rev:            6988
Checksum:              359

Satellite: KKS-1
Catalog number: 33493
Epoch time:      09225.80969824
Element set:     656
Inclination:      098.0609 deg
RA of node:       338.2843 deg
Eccentricity:    0.0021269
Arg of perigee:   057.6471 deg
Mean anomaly:     302.6797 deg
Mean motion:   14.80712561 rev/day
Decay rate:       2.01e-06 rev/day^2
Epoch rev:            2999
Checksum:              328

Satellite: SOHLA-1
Catalog number: 33496
Epoch time:      09225.78998660
Element set:     620
Inclination:      098.0415 deg
RA of node:       334.2108 deg
Eccentricity:    0.0007847
Arg of perigee:   097.2063 deg
Mean anomaly:     263.0036 deg
Mean motion:   14.69442738 rev/day
Decay rate:        1.8e-07 rev/day^2
Epoch rev:            2973
Checksum:              315

/EX
SB KEPS @ AMSAT  $ORB09225.W
Orbital Elements  09225.WEATHER

HR AMSAT ORBITAL ELEMENTS FOR WEATHER SATELLITES
FROM WA5QGD FORT WORTH,TX August 13, 2009
Send Subscribe/unsubscribe to KEPS at 
http://www.amsat.org/mailman/listinfo/keps
BID: ORB09225.W
TO ALL RADIO AMATEURS BT

Satellite: NOAA-10
Catalog number: 16969
Epoch time:      09225.49710377
Element set:     722
Inclination:      098.6893 deg
RA of node:       251.8274 deg
Eccentricity:    0.0012923
Arg of perigee:   033.1016 deg
Mean anomaly:     327.0981 deg
Mean motion:   14.27392125 rev/day
Decay rate:       -2.3e-07 rev/day^2
Epoch rev:           19168
Checksum:              310

Satellite: NOAA-11
Catalog number: 19531
Epoch time:      09225.27514875
Element set:     739
Inclination:      098.7828 deg
RA of node:       314.3468 deg
Eccentricity:    0.0011007
Arg of perigee:   309.0685 deg
Mean anomaly:     050.9487 deg
Mean motion:   14.14900813 rev/day
Decay rate:       -4.7e-07 rev/day^2
Epoch rev:            7759
Checksum:              323

Satellite: NOAA-12
Catalog number: 21263
Epoch time:      09225.51972061
Element set:     225
Inclination:      098.7734 deg
RA of node:       233.6086 deg
Eccentricity:    0.0012493
Arg of perigee:   345.3068 deg
Mean anomaly:     014.7747 deg
Mean motion:   14.25588883 rev/day
Decay rate:        2.1e-07 rev/day^2
Epoch rev:           94856
Checksum:              317

Satellite: MET-3/5
Catalog number: 21655
Epoch time:      09224.97414743
Element set:    0716
Inclination:      082.5569 deg
RA of node:       166.3852 deg
Eccentricity:    0.0014803
Arg of perigee:   042.4504 deg
Mean anomaly:     317.7759 deg
Mean motion:   13.17019873 rev/day
Decay rate:        5.1e-07 rev/day^2
Epoch rev:           86510
Checksum:              314

Satellite: MET-2/21
Catalog number: 22782
Epoch time:      09225.81344168
Element set:     536
Inclination:      082.5494 deg
RA of node:       136.3075 deg
Eccentricity:    0.0022004
Arg of perigee:   181.2479 deg
Mean anomaly:     178.8615 deg
Mean motion:   13.83639584 rev/day
Decay rate:        5.0e-07 rev/day^2
Epoch rev:           80557
Checksum:              317

Satellite: OKEAN-4
Catalog number: 23317
Epoch time:      09225.12517064
Element set:     988
Inclination:      082.5396 deg
RA of node:       281.3558 deg
Eccentricity:    0.0022228
Arg of perigee:   172.4681 deg
Mean anomaly:     187.6889 deg
Mean motion:   14.82713285 rev/day
Decay rate:        2.9e-07 rev/day^2
Epoch rev:           80080
Checksum:              325

Satellite: NOAA-14
Catalog number: 23455
Epoch time:      09225.42564196
Element set:     721
Inclination:      098.9051 deg
RA of node:       302.8981 deg
Eccentricity:    0.0009755
Arg of perigee:   034.0765 deg
Mean anomaly:     326.1053 deg
Mean motion:   14.13767238 rev/day
Decay rate:       -3.1e-07 rev/day^2
Epoch rev:           75401
Checksum:              298

Satellite: NOAA-15
Catalog number: 25338
Epoch time:      09225.49821483
Element set:      40
Inclination:      098.5879 deg
RA of node:       213.4599 deg
Eccentricity:    0.0009580
Arg of perigee:   249.7465 deg
Mean anomaly:     110.2683 deg
Mean motion:   14.24779708 rev/day
Decay rate:       1.89e-06 rev/day^2
Epoch rev:           58493
Checksum:              353

Satellite: RESURS
Catalog number: 25394
Epoch time:      09224.92678331
Element set:    0284
Inclination:      098.3374 deg
RA of node:       254.3796 deg
Eccentricity:    0.0002465
Arg of perigee:   052.7852 deg
Mean anomaly:     307.3552 deg
Mean motion:   14.24187616 rev/day
Decay rate:       -1.2e-07 rev/day^2
Epoch rev:           57647
Checksum:              317

Satellite: FENGYUN1
Catalog number: 25730
Epoch time:      09225.91706768
Element set:     826
Inclination:      098.7573 deg
RA of node:       194.3516 deg
Eccentricity:    0.0023486
Arg of perigee:   053.7884 deg
Mean anomaly:     306.5454 deg
Mean motion:   14.07950827 rev/day
Decay rate:       4.16e-06 rev/day^2
Epoch rev:           52844
Checksum:              335

Satellite: OKEAN-0
Catalog number: 25860
Epoch time:      09225.41388555
Element set:     756
Inclination:      097.7911 deg
RA of node:       204.3343 deg
Eccentricity:    0.0001523
Arg of perigee:   044.5628 deg
Mean anomaly:     315.5703 deg
Mean motion:   14.73583424 rev/day
Decay rate:        2.0e-08 rev/day^2
Epoch rev:           54157
Checksum:              290

Satellite: NOAA-16
Catalog number: 26536
Epoch time:      09225.52646149
Element set:     518
Inclination:      099.1786 deg
RA of node:       230.5852 deg
Eccentricity:    0.0011412
Arg of perigee:   118.3490 deg
Mean anomaly:     241.8829 deg
Mean motion:   14.12527055 rev/day
Decay rate:      -3.18e-06 rev/day^2
Epoch rev:           45839
Checksum:              316

Satellite: NOAA-17
Catalog number: 27453
Epoch time:      09225.47397543
Element set:     519
Inclination:      098.4788 deg
RA of node:       282.5588 deg
Eccentricity:    0.0010894
Arg of perigee:   320.3070 deg
Mean anomaly:     039.7322 deg
Mean motion:   14.24084248 rev/day
Decay rate:       2.64e-06 rev/day^2
Epoch rev:           37090
Checksum:              327

